ONEWEB-0236             
1 48797U 21045AG  26192.66630221 -.00000153  00000+0 -44150-3 0  9990
2 48797  87.8985 254.3294 0002120  95.9707 264.1665 13.15548027247473
ONEWEB-0248             
1 48798U 21045AH  26192.67897364  .00000004  00000+0 -23042-4 0  9997
2 48798  87.8994 254.3126 0002420 108.1043 252.0351 13.15548771247633
ONEWEB-0225             
1 48799U 21045AJ  26192.62510556  .00000172  00000+0  42287-3 0  9994
2 48799  87.8992 254.3306 0002170 113.0132 247.1228 13.15548018247630
ONEWEB-0215             
1 48800U 21045AK  26192.67104894 -.00000107  00000+0 -31887-3 0  9990
2 48800  87.8997 254.3050 0002332 114.4845 245.6529 13.15548721247515
ONEWEB-0216             
1 48801U 21045AL  26192.68056250 -.00000014  00000+0 -70535-4 0  9995
2 48801  87.8995 254.3170 0002022  95.3786 264.7575 13.15547563247521
ONEWEB-0239             
1 48802U 21045AM  26192.68531585  .00000166  00000+0  40800-3 0  9992
2 48802  87.8981 254.3201 0002486 114.8682 245.2707 13.15548411247566
ONEWEB-0249             
1 48967U 21060A   26192.59988652 -.00000364  00000+0 -98532-3 0  9999
2 48967  87.9082 223.9286 0002245  94.7702 265.3686 13.16593716242820
ONEWEB-0250             
1 48968U 21060B   26192.60814183  .00000134  00000+0  27608-3 0  9998
2 48968  87.9076 221.6043 0003038  89.3052 270.8433 13.25835292243458
ONEWEB-0252             
1 48970U 21060D   26192.63078596  .00000008  00000+0 -13601-4 0  9994
2 48970  87.9077 223.9155 0001861  94.6397 265.4946 13.16594933242872
ONEWEB-0253             
1 48971U 21060E   26192.61970541  .00000000  00000+0 -34743-4 0  9996
2 48971  87.9079 223.9231 0002248  93.8966 266.2422 13.16594334242809
ONEWEB-0254             
1 48972U 21060F   26192.62920656  .00000069  00000+0  14570-3 0  9999
2 48972  87.9084 223.9175 0002300 102.3026 257.8363 13.16594222242801
ONEWEB-0255             
1 48973U 21060G   26192.59120684  .00000038  00000+0  65183-4 0  9992
2 48973  87.9078 223.9326 0002104  98.6563 261.4807 13.16594060242879
ONEWEB-0256             
1 48974U 21060H   26192.61730887  .00000194  00000+0  47318-3 0  9990
2 48974  87.9072 223.9301 0001715  94.8879 265.2448 13.16594140242841
ONEWEB-0257             
1 48975U 21060J   26192.57379029 -.00000117  00000+0 -33969-3 0  9997
2 48975  87.9079 223.9280 0002070  97.2060 262.9307 13.16593327242797
ONEWEB-0258             
1 48976U 21060K   26192.57537429 -.00000015  00000+0 -73780-4 0  9991
2 48976  87.9081 223.9392 0002131  94.2107 265.9268 13.16593755242808
ONEWEB-0259             
1 48977U 21060L   26192.64503710 -.00000009  00000+0 -57453-4 0  9998
2 48977  87.9079 223.9240 0002197  96.3564 263.7818 13.16594550242845
ONEWEB-0260             
1 48978U 21060M   26192.63631514  .00000019  00000+0  16601-4 0  9991
2 48978  87.9073 223.9265 0001679  90.9032 269.2291 13.16595533242827
ONEWEB-0261             
1 48979U 21060N   26192.60625182  .00000151  00000+0  36048-3 0  9996
2 48979  87.9072 223.9336 0001986 104.7397 255.3954 13.16593493242875
ONEWEB-0262             
1 48980U 21060P   26192.58645541  .00000056  00000+0  11234-3 0  9990
2 48980  87.9075 223.9235 0002240  97.3343 262.8043 13.16594179242830
ONEWEB-0263             
1 48981U 21060Q   26192.61811989  .00000136  00000+0  32167-3 0  9993
2 48981  87.9081 223.9289 0002106 104.8770 255.2594 13.16593657242800
ONEWEB-0264             
1 48982U 21060R   26192.57931286 -.00000023  00000+0 -93713-4 0  9994
2 48982  87.9070 223.9395 0001924  99.0645 261.0704 13.16592262242809
ONEWEB-0266             
1 48984U 21060T   26192.60069952 -.00000011  00000+0 -63301-4 0  9999
2 48984  87.9081 223.9257 0002209  90.5047 269.6337 13.16594537242790
ONEWEB-0267             
1 48985U 21060U   26192.61178897  .00000184  00000+0  44828-3 0  9991
2 48985  87.9080 223.9207 0001953 100.3249 259.8102 13.16593995242804
ONEWEB-0268             
1 48986U 21060V   26192.58012185  .00000087  00000+0  19356-3 0  9995
2 48986  87.9080 223.9363 0001943  91.4238 268.7116 13.16593472243068
ONEWEB-0269             
1 48987U 21060W   26192.56112334  .00000028  00000+0  40791-4 0  9994
2 48987  87.9078 223.9406 0002011  88.6979 271.4383 13.16594025242837
ONEWEB-0270             
1 48988U 21060X   26192.57854146 -.00000041  00000+0 -14005-3 0  9995
2 48988  87.9081 223.9389 0002302 102.7048 257.4340 13.16593810242872
ONEWEB-0271             
1 48989U 21060Y   26192.64187225  .00000020  00000+0  19727-4 0  9993
2 48989  87.9082 223.9145 0002082 100.4334 259.7032 13.16594378242886
ONEWEB-0272             
1 48990U 21060Z   26192.58803907  .00000009  00000+0 -10889-4 0  9998
2 48990  87.9072 223.9371 0001814  96.6039 263.5299 13.16595198242821
ONEWEB-0273             
1 48991U 21060AA  26192.61020240  .00000079  00000+0  17333-3 0  9990
2 48991  87.9081 223.9326 0002109 100.7598 259.3771 13.16593690242808
ONEWEB-0274             
1 48992U 21060AB  26192.63552743 -.00000026  00000+0 -10068-3 0  9993
2 48992  87.9070 223.9278 0001702  93.7646 266.3680 13.16595642242846
